{"spkid": "20311044", "covariance": {"elements": [{"sigma": 8.34355733176318e-08, "name": "e", "title": "eccentricity", "value": ".6219030228740222", "units": null, "label": "e"}, {"sigma": 1.57959968614605e-07, "name": "q", "value": ".7211504794276907", "title": "perihelion distance", "units": "au", "label": "q"}, {"units": "TDB", "value": "2457788.636094043452", "title": "time of perihelion passage", "sigma": 2.04290337266054e-05, "name": "tp", "label": "tp"}, {"label": "node", "units": "deg", "title": "longitude of the ascending node", "value": "271.1138380882219", "name": "om", "sigma": 7.42964311167797e-06}, {"units": "deg", "value": "71.4927660881073", "title": "argument of perihelion", "sigma": 1.51420069102655e-05, "name": "w", "label": "peri"}, {"label": "i", "units": "deg", "title": "inclination", "value": "55.864082691727", "sigma": 3.00058623160066e-05, "name": "i"}], "data": [["6.961494894841916E-15", "-1.317766636759272E-14", "5.226737477532746E-13", "-7.774208861694942E-14", "-6.239294636030691E-13", "-6.13275979409037E-14"], ["-1.317766636759272E-14", "2.495135168472685E-14", "-9.719994515576077E-13", "1.486116193180895E-13", "1.193492225508674E-12", "9.808694401398191E-14"], ["5.226737477532746E-13", "-9.719994515576077E-13", "4.173454190027801E-10", "-1.203754245553845E-11", "1.739366240589348E-10", "-1.970723912900263E-10"], ["-7.774208861694942E-14", "1.486116193180895E-13", "-1.203754245553845E-11", "5.519959676690395E-11", "-2.388859366600396E-11", "4.085006935968423E-11"], ["-6.239294636030691E-13", "1.193492225508674E-12", "1.739366240589348E-10", "-2.388859366600396E-11", "2.292803732705295E-10", "-1.369368055375414E-10"], ["-6.13275979409037E-14", "9.808694401398191E-14", "-1.970723912900263E-10", "4.085006935968423E-11", "-1.369368055375414E-10", "9.003517733271463E-10"]], "labels": ["e", "q", "tp", "node", "peri", "i"], "epoch": "2457995.5"}, "elements": [{"label": "e", "title": "eccentricity", "value": ".6224092586959153", "units": null, "sigma": "8.3585E-8", "name": "e"}, {"label": "a", "sigma": "7.4755E-9", "name": "a", "units": "au", "title": "semi-major axis", "value": "1.907077605653837"}, {"label": "q", "units": "au", "value": ".7200948468432512", "title": "perihelion distance", "sigma": "1.583E-7", "name": "q"}, {"label": "i", "value": "55.85288669714971", "title": "inclination; angle with respect to x-y ecliptic plane", "units": "deg", "sigma": "3.0006E-5", "name": "i"}, {"sigma": "7.4404E-6", "name": "om", "value": "271.0618927451633", "title": "longitude of the ascending node", "units": "deg", "label": "node"}, {"sigma": "1.5142E-5", "name": "w", "value": "71.46205011634486", "title": "argument of perihelion", "units": "deg", "label": "peri"}, {"title": "mean anomaly", "value": "196.7061856819503", "units": "deg", "name": "ma", "sigma": "1.2875E-5", "label": "M"}, {"sigma": "3.6574E-5", "name": "tp", "units": "TDB", "title": "time of perihelion passage", "value": "2461636.833149973069", "label": "tp"}, {"units": "d", "value": "961.9466275945882", "title": "sidereal orbital period", "sigma": "5.6561E-6", "name": "per", "label": "period"}, {"sigma": "2.2005E-9", "name": "n", "value": ".3742411373697562", "title": "mean motion", "units": "deg/d", "label": "n"}, {"sigma": "1.2128E-8", "name": "ad", "units": "au", "title": "aphelion distance", "value": "3.094060364464423", "label": "Q"}], "epoch": "2461200.5"}